CZ-4B R/B               
1 28059U 03049C   25043.53989339  .00000980  00000+0  23851-3 0  9991
2 28059  98.6457  19.2449 0048308 343.9644  16.0020 14.54462976129874
CZ-2C R/B               
1 28222U 04012C   25043.59987330  .00021389  00000+0  57163-3 0  9998
2 28222  97.7844  74.9713 0025284 283.2480  76.5944 15.37780589143899
SL-16 R/B               
1 28353U 04021B   25043.53786671  .00000366  00000+0  21525-3 0  9997
2 28353  71.0032 331.2075 0007299 271.0945  88.9341 14.14520471 67669
CZ-4B R/B               
1 28415U 04035C   25043.58576884  .00009259  00000+0  40632-3 0  9999
2 28415  97.3961  78.5002 0036220 264.6486  95.0617 15.21573613120441
CZ-2C R/B               
1 28480U 04046B   25043.52673201  .00000312  00000+0  13192-3 0  9990
2 28480  98.1878 337.9966 0138930 228.2989 130.6239 14.26723423 52861
ARIANE 5 R/B            
1 28499U 04049H   25043.55137332  .00002696  00000+0  31021-3 0  9994
2 28499  98.2131 193.8470 0086207 174.3751 185.8451 14.84012458 87904
CZ-2D R/B               
1 28738U 05024B   25043.53783010  .00022359  00000+0  61008-3 0  9998
2 28738  97.3694  46.5628 0007614  26.8013 333.3624 15.37420797 79440
ALOS (DAICHI)           
1 28931U 06002A   25043.61077373  .00003075  00000+0  54593-3 0  9992
2 28931  98.0700 358.3186 0002485  88.9079 271.2411 14.67906466 16210
H-2A R/B                
1 28932U 06002B   25043.55244169  .00011314  00000+0  70680-3 0  9995
2 28932  98.1999 155.8664 0062645 121.3241 239.4138 15.07999851 35476
RESURS-DK 1             
1 29228U 06021A   25043.58542641  .00004228  00000+0  26672-3 0  9992
2 29228  69.9347 163.9808 0005701 327.8585  32.2231 15.09882978 28582
GENESIS 1               
1 29252U 06029A   25043.43667117  .00067319  00000+0  73840-3 0  9996
2 29252  64.5057  62.8558 0033791 301.7402  58.0451 15.62117740 27795
CZ-4B R/B               
1 29507U 06046C   25043.60905229  .00006333  00000+0  36652-3 0  9995
2 29507  97.6132  84.5789 0037181 171.9246 188.2591 15.12007592  1001
CZ-2C R/B               
1 31114U 07010B   25043.61741870  .00000224  00000+0  12251-3 0  9997
2 31114  98.3598 172.1386 0058858 349.8287  10.1695 14.20046823924352
COSMO-SKYMED 1          
1 31598U 07023A   25043.60844637  .00001120  00000+0  14721-3 0  9991
2 31598  97.8892 229.2985 0001255  83.3469 276.7887 14.82168809956736
GENESIS 2               
1 31789U 07028A   25043.57337852  .00050594  00000+0  67982-3 0  9996
2 31789  64.4819 110.6536 0014736 318.5162  41.4860 15.57481804974579
COSMOS 2428             
1 31792U 07029A   25043.43698240 -.00000072  00000+0 -13123-4 0  9994
2 31792  70.9441 302.5439 0003104  52.5942 307.5461 14.12852439908978
SL-16 R/B               
1 31793U 07029B   25043.63944964 -.00000177  00000+0 -67141-4 0  9999
2 31793  70.9740 272.2487 0002787 262.3405 163.1704 14.14743568910207
KORONAS-FOTON           
1 33504U 09003A   25043.47694693  .00011278  00000+0  34748-3 0  9996
2 33504  82.4372 318.3416 0014760 106.1833 254.1035 15.33370035885752
CZ-2C R/B               
1 37731U 11030B   25043.64756758  .00002202  00000+0  29395-3 0  9994
2 37731  97.7992   5.5659 0054242 177.5502 355.4775 14.79555662732389
H-2A R/B                
1 38341U 12025E   25043.53950071  .00004188  00000+0  41335-3 0  9992
2 38341  98.4294 336.7529 0048546 145.3216 215.1182 14.91702164689986
SHIJIAN-16 (SJ-16)      
1 39358U 13057A   25043.59640296  .00002013  00000+0  20754-3 0  9995
2 39358  74.9716 202.6929 0017209 336.6831  23.3573 14.90694507613348
SL-4 R/B                
1 39679U 14021B   25043.43798403  .00010552  00000+0  31945-3 0  9991
2 39679  51.6121  64.4078 0121296 131.8324 229.3088 15.27803689596397
ALOS-2                  
1 39766U 14029A   25043.54499036  .00003847  00000+0  52178-3 0  9998
2 39766  97.9218 142.7458 0001487 103.6759 256.4618 14.79469597579184
YAOGAN-29               
1 41038U 15069A   25043.59917276  .00000928  00000+0  12268-3 0  9997
2 41038  98.0450  65.3792 0002155 135.7754 224.3631 14.82394292498074
ASTRO-H (HITOMI)        
1 41337U 16012A   25043.30737100  .00004992  00000+0  32034-3 0  9991
2 41337  31.0020 349.9501 0010065  11.3687 348.7176 15.06866617493238
HXMT (HUIYAN)           
1 42758U 17034A   25043.42354661  .00012173  00000+0  53748-3 0  9999
2 42758  43.0147  18.4218 0012063 214.5394 145.4672 15.21639525423345
CZ-2C R/B               
1 43521U 18054D   25043.61616589  .00028346  00000+0  60837-3 0  9998
2 43521  35.1425  19.3331 0042352 175.1697 184.9441 15.42756019367837
SAOCOM 1A               
1 43641U 18076A   25043.54952946  .00000966  00000+0  12792-3 0  9992
2 43641  97.8872 232.3122 0001553  88.5533 271.5858 14.82148601343575
H-2A R/B                
1 43682U 18084L   25043.36900423  .00018791  00000+0  73940-3 0  9996
2 43682  98.8579 178.0657 0036244 282.6987  77.0196 15.25100065345979
SAOCOM 1B               
1 46265U 20059A   25043.58078470  .00000962  00000+0  12736-3 0  9990
2 46265  97.8878 231.4467 0001503  88.3310 271.8075 14.82149419240965
CSS (TIANHE)            
1 48274U 21035A   25043.50098096  .00025780  00000+0  31939-3 0  9996
2 48274  41.4663  59.7493 0003875 163.9495 196.1467 15.59461078216669
COSMOS 2550             
1 48865U 21056A   25043.57605651 -.00000161  00000+0  92156-6 0  9991
2 48865  67.1424 141.0797 0008417 270.9895  89.0295 15.33829993203646
CZ-2C R/B               
1 52794U 22058K   25043.50492329  .00018331  00000+0  52276-3 0  9992
2 52794  50.1962 132.2812 0065252  22.1879 338.1885 15.33951926149879
XRISM                   
1 57800U 23137A   25043.35129962  .00007551  00000+0  49785-3 0  9990
2 57800  31.0015 278.2809 0008347  75.1113 285.0448 15.06110405 78782
ACS3                    
1 59588U 24077B   25043.63579657  .00007070  00000+0  72780-2 0  9996
2 59588  97.4981  64.3225 0056197 190.6450 169.3520 13.75578189 40352
